     3.02           N: GNSS NAV DATA    E: GALILEO          RINEX VERSION / TYPE
Spider v7.5.1.8670  SMO                 20210611 000827 UTC PGM / RUN BY / DATE
GAL    5.0500D+01  1.6406D-01  1.1597D-02  0.0000D+00       IONOSPHERIC CORR
GAUT  0.0000000000D+00 0.000000000D+00 345600 2161          TIME SYSTEM CORR
GPGA  6.4028427005D-10 2.042810365D-14 432000 2161          TIME SYSTEM CORR
    18    18  1929     7                                    LEAP SECONDS
                                                            END OF HEADER
E33 2021 06 10 11 20 00-4.694194649346D-04 3.694822225953D-13 0.000000000000D+00
     4.000000000000D+00-1.819375000000D+02 2.576893143313D-09 2.725748942453D+00
    -8.696690201759D-06 1.908600097522D-04 3.248453140259D-06 5.440612611771D+03
     3.864000000000D+05-2.793967723846D-08 2.386665654753D+00-7.450580596924D-09
     9.951411142504D-01 2.847500000000D+02 1.129461029671D-01-5.495586056075D-09
    -4.478757920090D-10 2.580000000000D+02 2.161000000000D+03 0.000000000000D+00
     3.120000000000D+00 0.000000000000D+00-3.026798367500D-09 0.000000000000D+00
     3.871000000000D+05
E12 2021 06 10 11 20 00 5.167229159269D-03-1.888622591650D-11 0.000000000000D+00
     4.000000000000D+00-1.835937500000D+02 2.593679493401D-09 1.666677867800D+00
    -8.724629878998D-06 4.127084976062D-04 4.148110747337D-06 5.440609035492D+03
     3.864000000000D+05-1.862645149231D-08 2.390071278302D+00-9.313225746155D-09
     9.919927989733D-01 2.695625000000D+02 3.865922881720D-01-5.462013229061D-09
    -4.564475741820D-10 2.580000000000D+02 2.161000000000D+03 0.000000000000D+00
     3.120000000000D+00 0.000000000000D+00-1.024454832077D-08 0.000000000000D+00
     3.871000000000D+05
E04 2021 06 10 11 20 00-7.894082809798D-04-8.014922059374D-12 0.000000000000D+00
     4.000000000000D+00 1.800000000000D+01 3.538361603717D-09 1.279937905363D+00
     9.536743164063D-07 3.405456664041D-04 4.444271326065D-06 5.440607393265D+03
     3.864000000000D+05 1.117587089539D-08-1.791774646492D+00 7.450580596924D-09
     9.544355605978D-01 2.420312500000D+02-1.341347901598D+00-5.664164506616D-09
     4.150172983053D-10 2.580000000000D+02 2.161000000000D+03 0.000000000000D+00
     3.120000000000D+00 0.000000000000D+00-3.259629011154D-09 0.000000000000D+00
     3.871000000000D+05
E33 2021 06 10 11 30 00-4.694201052189D-04 3.836930773105D-13 0.000000000000D+00
     5.000000000000D+00-1.803125000000D+02 2.576893143313D-09 2.800515110112D+00
    -8.601695299149D-06 1.905316021293D-04 3.127381205559D-06 5.440613283157D+03
     3.870000000000D+05-2.980232238770D-08 2.386662363187D+00-1.117587089539D-08
     9.951408260555D-01 2.868750000000D+02 1.125652103014D-01-5.498443317949D-09
    -4.471614745150D-10 5.170000000000D+02 2.161000000000D+03 0.000000000000D+00
     3.120000000000D+00 0.000000000000D+00-3.026798367500D-09-3.259629011154D-09
     3.876640000000D+05
E04 2021 06 10 11 30 00-7.894139271230D-04-8.000711204659D-12 0.000000000000D+00
     5.000000000000D+00 1.862500000000D+01 3.532290016039D-09 1.354086916161D+00
     9.704381227493D-07 3.405173774809D-04 4.436820745468D-06 5.440607561111D+03
     3.870000000000D+05 1.117587089539D-08-1.791778044850D+00 1.117587089539D-08
     9.544358253860D-01 2.423125000000D+02-1.341110977627D+00-5.662021560211D-09
     4.139458220642D-10 5.170000000000D+02 2.161000000000D+03 0.000000000000D+00
     3.120000000000D+00 0.000000000000D+00-3.259629011154D-09-3.492459654808D-09
     3.876640000000D+05
E19 2021 06 10 11 30 00 2.987218322232D-04 9.492850949755D-12 0.000000000000D+00
     5.000000000000D+00 2.478125000000D+01 3.464787123875D-09 2.394806117996D+00
     1.087784767151D-06 3.233380848542D-04 4.548579454422D-06 5.440606061935D+03
     3.870000000000D+05-1.862645149231D-09-1.791370309101D+00-9.313225746155D-09
     9.601179103876D-01 2.428437500000D+02-1.516169428188D+00-5.635591887880D-09
     3.975165474568D-10 5.170000000000D+02 2.161000000000D+03 0.000000000000D+00
     3.120000000000D+00 0.000000000000D+00-3.492459654808D-09-3.492459654808D-09
     3.876940000000D+05
E33 2021 06 10 11 30 00-4.694191156887D-04 3.836930773105D-13 0.000000000000D+00
     5.000000000000D+00-1.803125000000D+02 2.576893143313D-09 2.800515110112D+00
    -8.601695299149D-06 1.905316021293D-04 3.127381205559D-06 5.440613283157D+03
     3.870000000000D+05-2.980232238770D-08 2.386662363187D+00-1.117587089539D-08
     9.951408260555D-01 2.868750000000D+02 1.125652103014D-01-5.498443317949D-09
    -4.471614745150D-10 2.580000000000D+02 2.161000000000D+03 0.000000000000D+00
     3.120000000000D+00 0.000000000000D+00-3.026798367500D-09 0.000000000000D+00
     3.877000000000D+05
E19 2021 06 10 11 30 00 2.987238694914D-04 9.549694368616D-12 0.000000000000D+00
     5.000000000000D+00 2.478125000000D+01 3.464787123875D-09 2.394806117996D+00
     1.087784767151D-06 3.233380848542D-04 4.548579454422D-06 5.440606061935D+03
     3.870000000000D+05-1.862645149231D-09-1.791370309101D+00-9.313225746155D-09
     9.601179103876D-01 2.428437500000D+02-1.516169428188D+00-5.635591887880D-09
     3.975165474568D-10 2.580000000000D+02 2.161000000000D+03 0.000000000000D+00
     3.120000000000D+00 0.000000000000D+00-3.492459654808D-09 0.000000000000D+00
     3.877000000000D+05
E04 2021 06 10 11 30 00-7.894130540080D-04-8.000711204659D-12 0.000000000000D+00
     5.000000000000D+00 1.862500000000D+01 3.532290016039D-09 1.354086916161D+00
     9.704381227493D-07 3.405173774809D-04 4.436820745468D-06 5.440607561111D+03
     3.870000000000D+05 1.117587089539D-08-1.791778044850D+00 1.117587089539D-08
     9.544358253860D-01 2.423125000000D+02-1.341110977627D+00-5.662021560211D-09
     4.139458220642D-10 2.580000000000D+02 2.161000000000D+03 0.000000000000D+00
     3.120000000000D+00 0.000000000000D+00-3.259629011154D-09 0.000000000000D+00
     3.877000000000D+05
E11 2021 06 10 11 30 00 5.869042535778D-03-4.908429218631D-11 0.000000000000D+00
     5.000000000000D+00-1.954375000000D+02 2.560106571181D-09 4.958054513729D-01
    -9.009614586830D-06 4.991407040507D-04 3.932043910027D-06 5.440615633011D+03
     3.870000000000D+05-3.725290298462D-08 2.390076124950D+00 3.725290298462D-08
     9.919786350004D-01 2.715625000000D+02 8.240918374986D-01-5.495943213809D-09
    -4.314465451571D-10 5.170000000000D+02 2.161000000000D+03 0.000000000000D+00
     3.120000000000D+00 0.000000000000D+00-1.303851604462D-08-1.420266926289D-08
     3.877750000000D+05
E11 2021 06 10 11 30 00 5.869044398423D-03-4.908429218631D-11 0.000000000000D+00
     5.000000000000D+00-1.954375000000D+02 2.560106571181D-09 4.958054513729D-01
    -9.009614586830D-06 4.991407040507D-04 3.932043910027D-06 5.440615633011D+03
     3.870000000000D+05-3.725290298462D-08 2.390076124950D+00 3.725290298462D-08
     9.919786350004D-01 2.715625000000D+02 8.240918374986D-01-5.495943213809D-09
    -4.314465451571D-10 2.580000000000D+02 2.161000000000D+03 0.000000000000D+00
     3.120000000000D+00 0.000000000000D+00-1.303851604462D-08 0.000000000000D+00
     3.877500000000D+05
E12 2021 06 10 11 30 00 5.167217459530D-03-1.887201506179D-11 0.000000000000D+00
     5.000000000000D+00-1.833125000000D+02 2.602251303330D-09 1.741139091649D+00
    -8.739531040192D-06 4.127399297431D-04 4.138797521591D-06 5.440608949661D+03
     3.870000000000D+05-1.862645149231D-08 2.390068005755D+00-9.313225746155D-09
     9.919925224818D-01 2.692812500000D+02 3.865162222835D-01-5.462727544529D-09
    -4.568047329290D-10 5.170000000000D+02 2.161000000000D+03 0.000000000000D+00
     3.120000000000D+00 0.000000000000D+00-1.024454832077D-08-1.001171767712D-08
     3.878140000000D+05
E12 2021 06 10 11 30 00 5.167217983399D-03-1.887201506179D-11 0.000000000000D+00
     5.000000000000D+00-1.833125000000D+02 2.602251303330D-09 1.741139091649D+00
    -8.739531040192D-06 4.127399297431D-04 4.138797521591D-06 5.440608949661D+03
     3.870000000000D+05-1.862645149231D-08 2.390068005755D+00-9.313225746155D-09
     9.919925224818D-01 2.692812500000D+02 3.865162222835D-01-5.462727544529D-09
    -4.568047329290D-10 2.580000000000D+02 2.161000000000D+03 0.000000000000D+00
     3.120000000000D+00 0.000000000000D+00-1.024454832077D-08 0.000000000000D+00
     3.878500000000D+05
E33 2021 06 10 11 40 00-4.694197559729D-04 4.121147867409D-13 0.000000000000D+00
     6.000000000000D+00-1.784687500000D+02 2.576535873544D-09 2.875387634842D+00
    -8.493661880493D-06 1.902244985104D-04 3.024935722351D-06 5.440613922119D+03
     3.876000000000D+05-3.166496753693D-08 2.386659067233D+00-1.490116119385D-08
     9.951405466382D-01 2.886250000000D+02 1.120779269184D-01-5.499871948886D-09
    -4.464471570209D-10 5.170000000000D+02 2.161000000000D+03 0.000000000000D+00
     3.120000000000D+00 0.000000000000D+00-3.026798367500D-09-3.259629011154D-09
     3.882640000000D+05
E12 2021 06 10 11 40 00 5.167206225451D-03-1.885780420707D-11 0.000000000000D+00
     6.000000000000D+00-1.833750000000D+02 2.609751525995D-09 1.815501338849D+00
    -8.767470717430D-06 4.127339925617D-04 4.114583134651D-06 5.440608974457D+03
     3.876000000000D+05-1.862645149231D-08 2.390064734670D+00-7.450580596924D-09
     9.919922459902D-01 2.693125000000D+02 3.865391783940D-01-5.463441859998D-09
    -4.571618916760D-10 5.170000000000D+02 2.161000000000D+03 0.000000000000D+00
     3.120000000000D+00 0.000000000000D+00-1.024454832077D-08-1.001171767712D-08
     3.882640000000D+05
